tleArray_g = [ {"id": 34908, "Line1": "1 34908U 93036ADD 21275.05666031  .00000411  00000-0  16527-3 0  9999", "Line2": "2 34908  74.0590 301.1200 0047331 339.6241  49.1504 14.30652709653187"}, {"id": 34909, "Line1": "1 34909U 93036ADE 21273.43126830  .00000551  00000-0  10071-3 0  9991", "Line2": "2 34909  74.0191 174.6399 0105426 334.9730  24.6346 14.65110696443099"}, {"id": 34910, "Line1": "1 34910U 93036ADF 21274.67926453  .00000106  00000-0  13154-3 0  9990", "Line2": "2 34910  73.8784 352.6658 0481249  11.8896 139.0572 13.34357174610543"}, {"id": 34911, "Line1": "1 34911U 93036ADG 21274.75195517  .00000160  00000-0  40951-4 0  9995", "Line2": "2 34911  74.0405 277.6444 0086827  73.1520 101.1042 14.56295581662529"}, {"id": 34912, "Line1": "1 34912U 93036ADH 21274.84202218  .00002033  00000-0  30643-3 0  9990", "Line2": "2 34912  74.1646 216.0610 0063021 187.7898 172.2304 14.73738057669167"}, {"id": 34913, "Line1": "1 34913U 93036ADJ 21274.59954137  .00000014  00000-0  14573-4 0  9999", "Line2": "2 34913  74.0290 210.4076 0021806 329.6911 205.1569 14.34001649432078"}, {"id": 34914, "Line1": "1 34914U 93036ADK 21274.69917793  .00001617  00000-0  25631-3 0  9994", "Line2": "2 34914  73.9994 261.8687 0163280 196.9978 162.5685 14.64554903663662"}, {"id": 34916, "Line1": "1 34916U 93036ADM 21274.98145597  .00005109  00000-0  74803-3 0  9998", "Line2": "2 34916  74.0753 244.2055 0093506  71.6845 358.0458 14.72905070671009"}, {"id": 34918, "Line1": "1 34918U 93036ADP 21272.75102234  .00001064  00000-0  36930-3 0  9999", "Line2": "2 34918  74.0745 286.0415 0050727 290.8149 185.4585 14.36070986431664"}, {"id": 34920, "Line1": "1 34920U 93036ADR 21274.22247466  .00001974  00000-0  51330-3 0  9994", "Line2": "2 34920  74.0301 104.8949 0016354 182.7566 177.3507 14.50244604448842"}, {"id": 34922, "Line1": "1 34922U 93036ADT 21274.57704075  .00004184  00000-0  38246-3 0  9995", "Line2": "2 34922  74.1597  24.4355 0092349 319.6581  39.7775 14.92121256369782"}, {"id": 34924, "Line1": "1 34924U 93036ADV 21274.45870010  .00000711  00000-0  19907-3 0  9992", "Line2": "2 34924  74.0433  94.4310 0071262 203.9887 180.6572 14.46481224654775"}, {"id": 34944, "Line1": "1 34944U 93036ADX 21272.26112469  .00000378  00000-0  18622-3 0  9990", "Line2": "2 34944  73.7615 103.2782 0236128 201.6799 157.4215 14.07643358425900"}, {"id": 34946, "Line1": "1 34946U 93036ADZ 21274.52838329  .00000534  00000-0  13841-3 0  9995", "Line2": "2 34946  74.0269   8.1908 0060111 165.6547 194.6339 14.51197946659052"}, {"id": 34948, "Line1": "1 34948U 93036AEB 21274.85868903  .00001804  00000-0  48575-3 0  9997", "Line2": "2 34948  74.0203 130.6523 0027422 194.4363 179.7019 14.48501182655502"}, {"id": 34949, "Line1": "1 34949U 93036AEC 21274.47583732  .00000651  00000-0  12427-3 0  9996", "Line2": "2 34949  74.0241 193.0967 0094759   3.4768 356.7036 14.63383118658722"}, {"id": 34951, "Line1": "1 34951U 93036AEE 21274.89156373  .00002068  00000-0  36912-3 0  9991", "Line2": "2 34951  74.0189 215.2042 0065421   8.1903 352.0317 14.66280476660869"}, {"id": 34953, "Line1": "1 34953U 93036AEG 21274.82492806  .00000926  00000-0  22787-3 0  9996", "Line2": "2 34953  74.0982  53.1998 0078979  99.9390  49.9706 14.51794811657868"}, {"id": 34954, "Line1": "1 34954U 93036AEH 21274.18676670  .00001704  00000-0  44971-3 0  9993", "Line2": "2 34954  73.9925  96.8003 0025598 227.3817 132.5185 14.49551240655429"}, {"id": 34955, "Line1": "1 34955U 93036AEJ 21273.06519500  .00001559  00000-0  20420-3 0  9999", "Line2": "2 34955  74.0465  52.5255 0119213 171.3232 189.0044 14.76458045672548"}, {"id": 34958, "Line1": "1 34958U 93036AEM 21274.31032289  .00003693  00000-0  31966-3 0  9993", "Line2": "2 34958  74.0119 248.4579 0142863   9.9572 350.4384 14.89943432671286"}, {"id": 34962, "Line1": "1 34962U 93036AER 21273.09583844  .00000326  00000-0  11221-3 0  9992", "Line2": "2 34962  74.0336 160.8682 0020967 287.3337  72.5525 14.39834906654511"}, {"id": 34963, "Line1": "1 34963U 93036AES 21274.59122958  .00000832  00000-0  29763-3 0  9996", "Line2": "2 34963  74.1791 335.1162 0053389 243.3871 116.1807 14.34770977647216"}, {"id": 34964, "Line1": "1 34964U 93036AET 21272.89250973  .00000688  00000-0  46324-3 0  9998", "Line2": "2 34964  73.9774 109.3193 0238047 293.4288  64.1972 13.89679438630917"}, {"id": 34965, "Line1": "1 34965U 93036AEU 21274.79338290  .00000267  00000-0  85770-4 0  9991", "Line2": "2 34965  74.0514 104.5997 0028565 256.6526 103.1446 14.43907081649592"}, {"id": 34966, "Line1": "1 34966U 93036AEV 21274.79828000  .00017213  00000-0  11177-2 0  9992", "Line2": "2 34966  73.9644 302.0468 0023555 215.4329 144.5298 15.07798675673208"}, {"id": 34967, "Line1": "1 34967U 93036AEW 21275.09948012  .00000569  00000-0  20487-3 0  9994", "Line2": "2 34967  73.9976 207.7694 0044221 350.8999   9.1347 14.35475463652350"}, {"id": 34968, "Line1": "1 34968U 93036AEX 21274.76221020  .00000181  00000-0  45458-4 0  9997", "Line2": "2 34968  74.0379 279.9129 0090256  69.2396 291.8409 14.56096203661459"}, {"id": 34969, "Line1": "1 34969U 93036AEY 21274.32500629  .00000216  00000-0  93234-4 0  9999", "Line2": "2 34969  74.0134 294.6873 0077479  67.2958 293.6357 14.28474059432189"}, {"id": 34970, "Line1": "1 34970U 93036AEZ 21274.37803565  .00100394  00000-0  32152-2 0  9999", "Line2": "2 34970  74.0077 264.1535 0012185 357.2053   2.9080 15.31841792460503"}];