OBJECT_NAME,OBJECT_ID,EPOCH,MEAN_MOTION,ECCENTRICITY,INCLINATION,RA_OF_ASC_NODE,ARG_OF_PERICENTER,MEAN_ANOMALY,EPHEMERIS_TYPE,CLASSIFICATION_TYPE,NORAD_CAT_ID,ELEMENT_SET_NO,REV_AT_EPOCH,BSTAR,MEAN_MOTION_DOT,MEAN_MOTION_DDOT
COSMOS 2251 DEB,1993-036ADD,2021-10-02T01:21:35.450784,14.30652709,.0047331,74.0590,301.1200,339.6241,49.1504,0,U,34908,999,65318,.16527E-3,.411E-5,0
COSMOS 2251 DEB,1993-036ADE,2021-09-30T10:21:01.581120,14.65110696,.0105426,74.0191,174.6399,334.9730,24.6346,0,U,34909,999,44309,.10071E-3,.551E-5,0
COSMOS 2251 DEB,1993-036ADF,2021-10-01T16:18:08.455392,13.34357174,.0481249,73.8784,352.6658,11.8896,139.0572,0,U,34910,999,61054,.13154E-3,.106E-5,0
COSMOS 2251 DEB,1993-036ADG,2021-10-01T18:02:48.926688,14.56295581,.0086827,74.0405,277.6444,73.1520,101.1042,0,U,34911,999,66252,.40951E-4,.16E-5,0
COSMOS 2251 DEB,1993-036ADH,2021-10-01T20:12:30.716352,14.73738057,.0063021,74.1646,216.0610,187.7898,172.2304,0,U,34912,999,66916,.30643E-3,.2033E-4,0
COSMOS 2251 DEB,1993-036ADJ,2021-10-01T14:23:20.374368,14.34001649,.0021806,74.0290,210.4076,329.6911,205.1569,0,U,34913,999,43207,.14573E-4,.14E-6,0
COSMOS 2251 DEB,1993-036ADK,2021-10-01T16:46:48.973152,14.64554903,.016328,73.9994,261.8687,196.9978,162.5685,0,U,34914,999,66366,.25631E-3,.1617E-4,0
COSMOS 2251 DEB,1993-036ADM,2021-10-01T23:33:17.795808,14.72905070,.0093506,74.0753,244.2055,71.6845,358.0458,0,U,34916,999,67100,.74803E-3,.5109E-4,0
COSMOS 2251 DEB,1993-036ADP,2021-09-29T18:01:28.330176,14.36070986,.0050727,74.0745,286.0415,290.8149,185.4585,0,U,34918,999,43166,.3693E-3,.1064E-4,0
COSMOS 2251 DEB,1993-036ADR,2021-10-01T05:20:21.810624,14.50244604,.0016354,74.0301,104.8949,182.7566,177.3507,0,U,34920,999,44884,.5133E-3,.1974E-4,0
COSMOS 2251 DEB,1993-036ADT,2021-10-01T13:50:56.320800,14.92121256,.0092349,74.1597,24.4355,319.6581,39.7775,0,U,34922,999,36978,.38246E-3,.4184E-4,0
COSMOS 2251 DEB,1993-036ADV,2021-10-01T11:00:31.688640,14.46481224,.0071262,74.0433,94.4310,203.9887,180.6572,0,U,34924,999,65477,.19907E-3,.711E-5,0
COSMOS 2251 DEB,1993-036ADX,2021-09-29T06:16:01.173216,14.07643358,.0236128,73.7615,103.2782,201.6799,157.4215,0,U,34944,999,42590,.18622E-3,.378E-5,0
COSMOS 2251 DEB,1993-036ADZ,2021-10-01T12:40:52.316256,14.51197946,.0060111,74.0269,8.1908,165.6547,194.6339,0,U,34946,999,65905,.13841E-3,.534E-5,0
COSMOS 2251 DEB,1993-036AEB,2021-10-01T20:36:30.732192,14.48501182,.0027422,74.0203,130.6523,194.4363,179.7019,0,U,34948,999,65550,.48575E-3,.1804E-4,0
COSMOS 2251 DEB,1993-036AEC,2021-10-01T11:25:12.344448,14.63383118,.0094759,74.0241,193.0967,3.4768,356.7036,0,U,34949,999,65872,.12427E-3,.651E-5,0
COSMOS 2251 DEB,1993-036AEE,2021-10-01T21:23:51.106272,14.66280476,.0065421,74.0189,215.2042,8.1903,352.0317,0,U,34951,999,66086,.36912E-3,.2068E-4,0
COSMOS 2251 DEB,1993-036AEG,2021-10-01T19:47:53.784384,14.51794811,.0078979,74.0982,53.1998,99.9390,49.9706,0,U,34953,999,65786,.22787E-3,.926E-5,0
COSMOS 2251 DEB,1993-036AEH,2021-10-01T04:28:56.642880,14.49551240,.0025598,73.9925,96.8003,227.3817,132.5185,0,U,34954,999,65542,.44971E-3,.1704E-4,0
COSMOS 2251 DEB,1993-036AEJ,2021-09-30T01:33:52.848000,14.76458045,.0119213,74.0465,52.5255,171.3232,189.0044,0,U,34955,999,67254,.2042E-3,.1559E-4,0
COSMOS 2251 DEB,1993-036AEM,2021-10-01T07:26:51.897696,14.89943432,.0142863,74.0119,248.4579,9.9572,350.4384,0,U,34958,999,67128,.31966E-3,.3693E-4,0
COSMOS 2251 DEB,1993-036AER,2021-09-30T02:18:00.441216,14.39834906,.0020967,74.0336,160.8682,287.3337,72.5525,0,U,34962,999,65451,.11221E-3,.326E-5,0
COSMOS 2251 DEB,1993-036AES,2021-10-01T14:11:22.235712,14.34770977,.0053389,74.1791,335.1162,243.3871,116.1807,0,U,34963,999,64721,.29763E-3,.832E-5,0
COSMOS 2251 DEB,1993-036AET,2021-09-29T21:25:12.840672,13.89679438,.0238047,73.9774,109.3193,293.4288,64.1972,0,U,34964,999,63091,.46324E-3,.688E-5,0
COSMOS 2251 DEB,1993-036AEU,2021-10-01T19:02:28.282560,14.43907081,.0028565,74.0514,104.5997,256.6526,103.1446,0,U,34965,999,64959,.8577E-4,.267E-5,0
COSMOS 2251 DEB,1993-036AEV,2021-10-01T19:09:31.392000,15.07798675,.0023555,73.9644,302.0468,215.4329,144.5298,0,U,34966,999,67320,.11177E-2,.17213E-3,0
COSMOS 2251 DEB,1993-036AEW,2021-10-02T02:23:15.082368,14.35475463,.0044221,73.9976,207.7694,350.8999,9.1347,0,U,34967,999,65235,.20487E-3,.569E-5,0
COSMOS 2251 DEB,1993-036AEX,2021-10-01T18:17:34.961280,14.56096203,.0090256,74.0379,279.9129,69.2396,291.8409,0,U,34968,999,66145,.45458E-4,.181E-5,0
COSMOS 2251 DEB,1993-036AEY,2021-10-01T07:48:00.543456,14.28474059,.0077479,74.0134,294.6873,67.2958,293.6357,0,U,34969,999,43218,.93234E-4,.216E-5,0
COSMOS 2251 DEB,1993-036AEZ,2021-10-01T09:04:22.280160,15.31841792,.0012185,74.0077,264.1535,357.2053,2.9080,0,U,34970,999,46050,.32152E-2,.100394E-2,0
